[{"OBJECT_NAME":"STARLINK-5696","OBJECT_ID":"2023-015AM","EPOCH":"2026-03-09T22:00:01.999584","MEAN_MOTION":15.10049659,"ECCENTRICITY":0.00013038,"INCLINATION":42.9992,"RA_OF_ASC_NODE":337.471,"ARG_OF_PERICENTER":241.823,"MEAN_ANOMALY":35.7298,"EPHEMERIS_TYPE":0,"CLASSIFICATION_TYPE":"U","NORAD_CAT_ID":55484,"ELEMENT_SET_NO":999,"REV_AT_EPOCH":567,"BSTAR":0.0011033274,"MEAN_MOTION_DOT":0.00018091,"MEAN_MOTION_DDOT":0},{"OBJECT_NAME":"PSLV DEB","OBJECT_ID":"2001-049CY","EPOCH":"2026-03-09T18:20:37.296384","MEAN_MOTION":15.08389698,"ECCENTRICITY":0.00190632,"INCLINATION":97.9861,"RA_OF_ASC_NODE":156.2845,"ARG_OF_PERICENTER":340.3269,"MEAN_ANOMALY":19.722,"EPHEMERIS_TYPE":0,"CLASSIFICATION_TYPE":"U","NORAD_CAT_ID":27152,"ELEMENT_SET_NO":999,"REV_AT_EPOCH":30598,"BSTAR":0.00053695108,"MEAN_MOTION_DOT":8.318e-5,"MEAN_MOTION_DDOT":0}]
